{"type": "FeatureCollection", "features": [ {"type": "Feature", "properties": {"norad_id": 31476, "name": "FENGYUN 1C DEB", "group": "fengyun-1c-debris", "lat": -69.99169838729652, "lon": -133.6347305081302, "alt_km": 839.3650762271436, "timestamp": "2025-12-24T05:51:19.891324+00:00", "meta": {"OBJECT_NAME": "FENGYUN 1C DEB", "OBJECT_ID": "1999-025BVQ", "EPOCH": "2025-12-22T22:17:07.566720", "MEAN_MOTION": 14.22165971, "ECCENTRICITY": 0.0052974, "INCLINATION": 98.8976, "RA_OF_ASC_NODE": 70.519, "ARG_OF_PERICENTER": 143.7404, "MEAN_ANOMALY": 216.7382, "EPHEMERIS_TYPE": 0, "CLASSIFICATION_TYPE": "U", "NORAD_CAT_ID": 31476, "ELEMENT_SET_NO": 999, "REV_AT_EPOCH": 95844, "BSTAR": 0.0015527, "MEAN_MOTION_DOT": 3.447e-05, "MEAN_MOTION_DDOT": 0}, "tle": {"line1": "1 31476U 99025BVQ 25356.92855980  .00003447  00000+0  15527-2 0  9992", "line2": "2 31476  98.8976  70.5190 0052974 143.7404 216.7382 14.22165971958449"}}, "geometry": {"type": "Point", "coordinates": [-133.6347305081302, -69.99169838729652]}}, {"type": "Feature", "properties": {"norad_id": 31477, "name": "FENGYUN 1C DEB", "group": "fengyun-1c-debris", "lat": -76.22351155953397, "lon": 27.3282549753239, "alt_km": 871.2355692497822, "timestamp": "2025-12-24T05:51:19.891335+00:00", "meta": {"OBJECT_NAME": "FENGYUN 1C DEB", "OBJECT_ID": "1999-025BVR", "EPOCH": "2025-12-23T16:32:04.337376", "MEAN_MOTION": 14.02935294, "ECCENTRICITY": 0.01097133, "INCLINATION": 98.8872, "RA_OF_ASC_NODE": 347.133, "ARG_OF_PERICENTER": 358.4238, "MEAN_ANOMALY": 1.6568, "EPHEMERIS_TYPE": 0, "CLASSIFICATION_TYPE": "U", "NORAD_CAT_ID": 31477, "ELEMENT_SET_NO": 999, "REV_AT_EPOCH": 95557, "BSTAR": 0.00038195011, "MEAN_MOTION_DOT": 5.81e-06, "MEAN_MOTION_DDOT": 0}, "tle": {"line1": "1 31477U 99025BVR 25357.68893909  .00000581  00000+0  38195-3 0  9993", "line2": "2 31477  98.8872 347.1330 0109713 358.4238   1.6568 14.02935294955577"}}, "geometry": {"type": "Point", "coordinates": [27.3282549753239, -76.22351155953397]}}, {"type": "Feature", "properties": {"norad_id": 31480, "name": "FENGYUN 1C DEB", "group": "fengyun-1c-debris", "lat": 51.17600118085384, "lon": 38.74804811107247, "alt_km": 796.7749785606056, "timestamp": "2025-12-24T05:51:19.891348+00:00", "meta": {"OBJECT_NAME": "FENGYUN 1C DEB", "OBJECT_ID": "1999-025BVU", "EPOCH": "2025-12-21T13:18:00.633600", "MEAN_MOTION": 13.9000478, "ECCENTRICITY": 0.0344025, "INCLINATION": 98.3376, "RA_OF_ASC_NODE": 205.8309, "ARG_OF_PERICENTER": 196.8219, "MEAN_ANOMALY": 162.1301, "EPHEMERIS_TYPE": 0, "CLASSIFICATION_TYPE": "U", "NORAD_CAT_ID": 31480, "ELEMENT_SET_NO": 999, "REV_AT_EPOCH": 93518, "BSTAR": 0.0016509, "MEAN_MOTION_DOT": 3.244e-05, "MEAN_MOTION_DDOT": 0}, "tle": {"line1": "1 31480U 99025BVU 25355.55417400  .00003244  00000+0  16509-2 0  9992", "line2": "2 31480  98.3376 205.8309 0344025 196.8219 162.1301 13.90004780935187"}}, "geometry": {"type": "Point", "coordinates": [38.74804811107247, 51.17600118085384]}}, {"type": "Feature", "properties": {"norad_id": 31482, "name": "FENGYUN 1C DEB", "group": "fengyun-1c-debris", "lat": -69.04043704219337, "lon": 24.419166910381666, "alt_km": 732.3308563972478, "timestamp": "2025-12-24T05:51:19.891358+00:00", "meta": {"OBJECT_NAME": "FENGYUN 1C DEB", "OBJECT_ID": "1999-025BVW", "EPOCH": "2025-12-23T06:50:34.787040", "MEAN_MOTION": 14.35697891, "ECCENTRICITY": 0.00887339, "INCLINATION": 98.3826, "RA_OF_ASC_NODE": 0.8472, "ARG_OF_PERICENTER": 250.5191, "MEAN_ANOMALY": 125.1276, "EPHEMERIS_TYPE": 0, "CLASSIFICATION_TYPE": "U", "NORAD_CAT_ID": 31482, "ELEMENT_SET_NO": 999, "REV_AT_EPOCH": 97281, "BSTAR": 0.0006432887, "MEAN_MOTION_DOT": 1.899e-05, "MEAN_MOTION_DDOT": 0}, "tle": {"line1": "1 31482U 99025BVW 25357.28512485  .00001899  00000+0  64329-3 0  9993", "line2": "2 31482  98.3826   0.8472 0088733 250.5191 125.1276 14.35697891972813"}}, "geometry": {"type": "Point", "coordinates": [24.419166910381666, -69.04043704219337]}}, {"type": "Feature", "properties": {"norad_id": 31483, "name": "FENGYUN 1C DEB", "group": "fengyun-1c-debris", "lat": 50.09112590096547, "lon": -62.2826784655794, "alt_km": 898.8667173340336, "timestamp": "2025-12-24T05:51:19.891368+00:00", "meta": {"OBJECT_NAME": "FENGYUN 1C DEB", "OBJECT_ID": "1999-025BVX", "EPOCH": "2025-12-23T02:48:12.157632", "MEAN_MOTION": 14.16137249, "ECCENTRICITY": 0.01179999, "INCLINATION": 102.5051, "RA_OF_ASC_NODE": 311.5279, "ARG_OF_PERICENTER": 195.0677, "MEAN_ANOMALY": 233.9877, "EPHEMERIS_TYPE": 0, "CLASSIFICATION_TYPE": "U", "NORAD_CAT_ID": 31483, "ELEMENT_SET_NO": 999, "REV_AT_EPOCH": 94853, "BSTAR": 0.0024986308, "MEAN_MOTION_DOT": 5.217e-05, "MEAN_MOTION_DDOT": 0}, "tle": {"line1": "1 31483U 99025BVX 25357.11680738  .00005217  00000+0  24986-2 0  9995", "line2": "2 31483 102.5051 311.5279 0117999 195.0677 233.9877 14.16137249948530"}}, "geometry": {"type": "Point", "coordinates": [-62.2826784655794, 50.09112590096547]}}, {"type": "Feature", "properties": {"norad_id": 31484, "name": "FENGYUN 1C DEB", "group": "fengyun-1c-debris", "lat": 59.12663633590456, "lon": -81.26723539617214, "alt_km": 687.0861822002953, "timestamp": "2025-12-24T05:51:19.891380+00:00", "meta": {"OBJECT_NAME": "FENGYUN 1C DEB", "OBJECT_ID": "1999-025BVY", "EPOCH": "2025-12-23T01:26:10.111200", "MEAN_MOTION": 14.50731885, "ECCENTRICITY": 0.00830007, "INCLINATION": 101.8064, "RA_OF_ASC_NODE": 297.5559, "ARG_OF_PERICENTER": 124.1407, "MEAN_ANOMALY": 236.7682, "EPHEMERIS_TYPE": 0, "CLASSIFICATION_TYPE": "U", "NORAD_CAT_ID": 31484, "ELEMENT_SET_NO": 999, "REV_AT_EPOCH": 64387, "BSTAR": 0.0046453294, "MEAN_MOTION_DOT": 0.00019079, "MEAN_MOTION_DDOT": 0}, "tle": {"line1": "1 31484U 99025BVY 25357.05983925  .00019079  00000+0  46453-2 0  9997", "line2": "2 31484 101.8064 297.5559 0083000 124.1407 236.7682 14.50731885643878"}}, "geometry": {"type": "Point", "coordinates": [-81.26723539617214, 59.12663633590456]}}, {"type": "Feature", "properties": {"norad_id": 31485, "name": "FENGYUN 1C DEB", "group": "fengyun-1c-debris", "lat": -73.07397789263507, "lon": -39.49008490858674, "alt_km": 838.8195981497029, "timestamp": "2025-12-24T05:51:19.891390+00:00", "meta": {"OBJECT_NAME": "FENGYUN 1C DEB", "OBJECT_ID": "1999-025BVZ", "EPOCH": "2025-12-18T17:44:13.555392", "MEAN_MOTION": 13.40072022, "ECCENTRICITY": 0.04462178, "INCLINATION": 102.7177, "RA_OF_ASC_NODE": 181.5069, "ARG_OF_PERICENTER": 305.9941, "MEAN_ANOMALY": 50.0576, "EPHEMERIS_TYPE": 0, "CLASSIFICATION_TYPE": "U", "NORAD_CAT_ID": 31485, "ELEMENT_SET_NO": 999, "REV_AT_EPOCH": 90525, "BSTAR": 0.0021234273, "MEAN_MOTION_DOT": 2.008e-05, "MEAN_MOTION_DDOT": 0}, "tle": {"line1": "1 31485U 99025BVZ 25352.73904578  .00002008  00000+0  21234-2 0  9999", "line2": "2 31485 102.7177 181.5069 0446217 305.9941  50.0576 13.40072022905258"}}, "geometry": {"type": "Point", "coordinates": [-39.49008490858674, -73.07397789263507]}}, {"type": "Feature", "properties": {"norad_id": 31487, "name": "FENGYUN 1C DEB", "group": "fengyun-1c-debris", "lat": -62.834982300372424, "lon": -34.711312465670396, "alt_km": 834.926587448098, "timestamp": "2025-12-24T05:51:19.891401+00:00", "meta": {"OBJECT_NAME": "FENGYUN 1C DEB", "OBJECT_ID": "1999-025BWB", "EPOCH": "2025-12-21T18:20:46.093632", "MEAN_MOTION": 13.97768401, "ECCENTRICITY": 0.01205722, "INCLINATION": 102.4137, "RA_OF_ASC_NODE": 167.366, "ARG_OF_PERICENTER": 284.9972, "MEAN_ANOMALY": 90.2387, "EPHEMERIS_TYPE": 0, "CLASSIFICATION_TYPE": "U", "NORAD_CAT_ID": 31487, "ELEMENT_SET_NO": 999, "REV_AT_EPOCH": 94538, "BSTAR": 0.0013807923, "MEAN_MOTION_DOT": 2.004e-05, "MEAN_MOTION_DDOT": 0}, "tle": {"line1": "1 31487U 99025BWB 25355.76442238  .00002004  00000+0  13808-2 0  9991", "line2": "2 31487 102.4137 167.3660 0120572 284.9972  90.2387 13.97768401945384"}}, "geometry": {"type": "Point", "coordinates": [-34.711312465670396, -62.834982300372424]}}, {"type": "Feature", "properties": {"norad_id": 31491, "name": "FENGYUN 1C DEB", "group": "fengyun-1c-debris", "lat": 8.802993274055247, "lon": 88.83835600777235, "alt_km": 820.476486148973, "timestamp": "2025-12-24T05:51:19.891412+00:00", "meta": {"OBJECT_NAME": "FENGYUN 1C DEB", "OBJECT_ID": "1999-025BWE", "EPOCH": "2025-12-18T05:01:58.636416", "MEAN_MOTION": 14.1729953, "ECCENTRICITY": 0.00511133, "INCLINATION": 99.3072, "RA_OF_ASC_NODE": 261.0688, "ARG_OF_PERICENTER": 253.212, "MEAN_ANOMALY": 106.3442, "EPHEMERIS_TYPE": 0, "CLASSIFICATION_TYPE": "U", "NORAD_CAT_ID": 31491, "ELEMENT_SET_NO": 999, "REV_AT_EPOCH": 63805, "BSTAR": 0.0014383052, "MEAN_MOTION_DOT": 2.896e-05, "MEAN_MOTION_DDOT": 0}, "tle": {"line1": "1 31491U 99025BWE 25352.20970644  .00002896  00000+0  14383-2 0  9997", "line2": "2 31491  99.3072 261.0688 0051113 253.2120 106.3442 14.17299530638050"}}, "geometry": {"type": "Point", "coordinates": [88.83835600777235, 8.802993274055247]}}, {"type": "Feature", "properties": {"norad_id": 31492, "name": "FENGYUN 1C DEB", "group": "fengyun-1c-debris", "lat": 55.701893709232486, "lon": -1.5290554458621568, "alt_km": 691.3844001999123, "timestamp": "2025-12-24T05:51:19.891423+00:00", "meta": {"OBJECT_NAME": "FENGYUN 1C DEB", "OBJECT_ID": "1999-025BWF", "EPOCH": "2025-12-22T22:16:59.719872", "MEAN_MOTION": 14.71117312, "ECCENTRICITY": 0.00645708, "INCLINATION": 98.856, "RA_OF_ASC_NODE": 163.8283, "ARG_OF_PERICENTER": 336.971, "MEAN_ANOMALY": 22.8602, "EPHEMERIS_TYPE": 0, "CLASSIFICATION_TYPE": "U", "NORAD_CAT_ID": 31492, "ELEMENT_SET_NO": 999, "REV_AT_EPOCH": 96656, "BSTAR": 0.0033267446, "MEAN_MOTION_DOT": 0.00021138, "MEAN_MOTION_DDOT": 0}, "tle": {"line1": "1 31492U 99025BWF 25356.92846898  .00021138  00000+0  33267-2 0  9996", "line2": "2 31492  98.8560 163.8283 0064570 336.9710  22.8602 14.71117312966569"}}, "geometry": {"type": "Point", "coordinates": [-1.5290554458621568, 55.701893709232486]}}]}